{
  "type": "FeatureCollection",
  "features": [
    {
      "type": "Feature",
      "properties": {
        "norad_id": 67131,
        "name": "ZIYUAN 3-04 (ZY 3-04)",
        "group": "last-30-days",
        "lat": -36.83762069758604,
        "lon": -110.68499281643672,
        "alt_km": 507.93318622973857,
        "timestamp": "2025-12-26T22:28:04.501823+00:00",
        "meta_object_name": "ZIYUAN 3-04 (ZY 3-04)",
        "meta_object_id": "2025-300A",
        "meta_epoch": "2025-12-21T18:22:34.187808",
        "meta_mean_motion": 15.21179479,
        "meta_eccentricity": 0.00027623,
        "meta_inclination": 97.4922,
        "meta_ra_of_asc_node": 69.8294,
        "meta_arg_of_pericenter": 167.6924,
        "meta_mean_anomaly": 192.438,
        "meta_ephemeris_type": 0,
        "meta_classification_type": "U",
        "meta_norad_cat_id": 67131,
        "meta_element_set_no": 999,
        "meta_rev_at_epoch": 86,
        "meta_bstar": 6.5769783e-05,
        "meta_mean_motion_dot": 1.396e-05,
        "meta_mean_motion_ddot": 0,
        "tle_line1": "1 67131U 25300A   25355.76567347  .00001396  00000+0  65770-4 0  9990",
        "tle_line2": "2 67131  97.4922  69.8294 0002762 167.6924 192.4380 15.21179479   860"
      },
      "geometry": {
        "type": "Point",
        "coordinates": [
          -110.68499281643672,
          -36.83762069758604
        ]
      }
    },
    {
      "type": "Feature",
      "properties": {
        "norad_id": 67132,
        "name": "CZ-4B R/B",
        "group": "last-30-days",
        "lat": 45.55955425622525,
        "lon": 68.03492078753531,
        "alt_km": 324.6363449882447,
        "timestamp": "2025-12-26T22:28:04.501834+00:00",
        "meta_object_name": "CZ-4B R/B",
        "meta_object_id": "2025-300B",
        "meta_epoch": "2025-12-18T16:13:04.609056",
        "meta_mean_motion": 15.63831828,
        "meta_eccentricity": 0.01741973,
        "meta_inclination": 97.5563,
        "meta_ra_of_asc_node": 66.966,
        "meta_arg_of_pericenter": 9.3582,
        "meta_mean_anomaly": 351.0851,
        "meta_ephemeris_type": 0,
        "meta_classification_type": "U",
        "meta_norad_cat_id": 67132,
        "meta_element_set_no": 999,
        "meta_rev_at_epoch": 40,
        "meta_bstar": 0.00019566238,
        "meta_mean_motion_dot": 0.00040543,
        "meta_mean_motion_ddot": 2.652968e-06,
        "tle_line1": "1 67132U 25300B   25352.67574779  .00040543  26530-5  19566-3 0  9995",
        "tle_line2": "2 67132  97.5563  66.9660 0174197   9.3582 351.0851 15.63831828   407"
      },
      "geometry": {
        "type": "Point",
        "coordinates": [
          68.03492078753531,
          45.55955425622525
        ]
      }
    },
    {
      "type": "Feature",
      "properties": {
        "norad_id": 67133,
        "name": "KUIPER-00144",
        "group": "last-30-days",
        "lat": -36.64534460850172,
        "lon": -87.56996342875695,
        "alt_km": 464.64988419774454,
        "timestamp": "2025-12-26T22:28:04.501845+00:00",
        "meta_object_name": "KUIPER-00144",
        "meta_object_id": "2025-301A",
        "meta_epoch": "2025-12-26T18:20:59.680032",
        "meta_mean_motion": 15.35482899,
        "meta_eccentricity": 0.0006208,
        "meta_inclination": 51.8706,
        "meta_ra_of_asc_node": 57.503,
        "meta_arg_of_pericenter": 123.3894,
        "meta_mean_anomaly": 236.7686,
        "meta_ephemeris_type": 0,
        "meta_classification_type": "U",
        "meta_norad_cat_id": 67133,
        "meta_element_set_no": 999,
        "meta_rev_at_epoch": 252,
        "meta_bstar": 0.00095145,
        "meta_mean_motion_dot": 0.00033088,
        "meta_mean_motion_ddot": 0,
        "tle_line1": "1 67133U 25301A   25360.76457963  .00033088  00000+0  95145-3 0  9992",
        "tle_line2": "2 67133  51.8706  57.5030 0006208 123.3894 236.7686 15.35482899  2526"
      },
      "geometry": {
        "type": "Point",
        "coordinates": [
          -87.56996342875695,
          -36.64534460850172
        ]
      }
    },
    {
      "type": "Feature",
      "properties": {
        "norad_id": 67134,
        "name": "KUIPER-00164",
        "group": "last-30-days",
        "lat": -50.06453514405769,
        "lon": -53.63808862786656,
        "alt_km": 463.964533471275,
        "timestamp": "2025-12-26T22:28:04.501855+00:00",
        "meta_object_name": "KUIPER-00164",
        "meta_object_id": "2025-301B",
        "meta_epoch": "2025-12-26T15:06:29.032416",
        "meta_mean_motion": 15.36165446,
        "meta_eccentricity": 0.0003215,
        "meta_inclination": 51.8731,
        "meta_ra_of_asc_node": 58.0973,
        "meta_arg_of_pericenter": 103.965,
        "meta_mean_anomaly": 256.1693,
        "meta_ephemeris_type": 0,
        "meta_classification_type": "U",
        "meta_norad_cat_id": 67134,
        "meta_element_set_no": 999,
        "meta_rev_at_epoch": 268,
        "meta_bstar": 0.0006672,
        "meta_mean_motion_dot": 0.00023565,
        "meta_mean_motion_ddot": 0,
        "tle_line1": "1 67134U 25301B   25360.62950269  .00023565  00000+0  66720-3 0  9991",
        "tle_line2": "2 67134  51.8731  58.0973 0003215 103.9650 256.1693 15.36165446  2684"
      },
      "geometry": {
        "type": "Point",
        "coordinates": [
          -53.63808862786656,
          -50.06453514405769
        ]
      }
    },
    {
      "type": "Feature",
      "properties": {
        "norad_id": 67135,
        "name": "KUIPER-00175",
        "group": "last-30-days",
        "lat": -51.48306808084196,
        "lon": -24.08703767066982,
        "alt_km": 461.9035823481154,
        "timestamp": "2025-12-26T22:28:04.501867+00:00",
        "meta_object_name": "KUIPER-00175",
        "meta_object_id": "2025-301C",
        "meta_epoch": "2025-12-26T18:09:02.922912",
        "meta_mean_motion": 15.36627409,
        "meta_eccentricity": 0.0002162,
        "meta_inclination": 51.8749,
        "meta_ra_of_asc_node": 57.4404,
        "meta_arg_of_pericenter": 59.5648,
        "meta_mean_anomaly": 300.5551,
        "meta_ephemeris_type": 0,
        "meta_classification_type": "U",
        "meta_norad_cat_id": 67135,
        "meta_element_set_no": 999,
        "meta_rev_at_epoch": 259,
        "meta_bstar": 0.00084262,
        "meta_mean_motion_dot": 0.0003034,
        "meta_mean_motion_ddot": 0,
        "tle_line1": "1 67135U 25301C   25360.75628383  .00030340  00000+0  84262-3 0  9995",
        "tle_line2": "2 67135  51.8749  57.4404 0002162  59.5648 300.5551 15.36627409  2598"
      },
      "geometry": {
        "type": "Point",
        "coordinates": [
          -24.08703767066982,
          -51.48306808084196
        ]
      }
    },
    {
      "type": "Feature",
      "properties": {
        "norad_id": 67136,
        "name": "KUIPER-00179",
        "group": "last-30-days",
        "lat": -51.49263663974766,
        "lon": -42.6201953861181,
        "alt_km": 463.7701326863544,
        "timestamp": "2025-12-26T22:28:04.501878+00:00",
        "meta_object_name": "KUIPER-00179",
        "meta_object_id": "2025-301D",
        "meta_epoch": "2025-12-26T18:12:00.163008",
        "meta_mean_motion": 15.3628107,
        "meta_eccentricity": 0.0002994,
        "meta_inclination": 51.8746,
        "meta_ra_of_asc_node": 57.4564,
        "meta_arg_of_pericenter": 88.5033,
        "meta_mean_anomaly": 271.6296,
        "meta_ephemeris_type": 0,
        "meta_classification_type": "U",
        "meta_norad_cat_id": 67136,
        "meta_element_set_no": 999,
        "meta_rev_at_epoch": 270,
        "meta_bstar": 0.00083358,
        "meta_mean_motion_dot": 0.00029673,
        "meta_mean_motion_ddot": 0,
        "tle_line1": "1 67136U 25301D   25360.75833522  .00029673  00000+0  83358-3 0  9991",
        "tle_line2": "2 67136  51.8746  57.4564 0002994  88.5033 271.6296 15.36281070  2703"
      },
      "geometry": {
        "type": "Point",
        "coordinates": [
          -42.6201953861181,
          -51.49263663974766
        ]
      }
    },
    {
      "type": "Feature",
      "properties": {
        "norad_id": 67137,
        "name": "KUIPER-00181",
        "group": "last-30-days",
        "lat": -7.866884816142587,
        "lon": -117.01205038103626,
        "alt_km": 459.271552068305,
        "timestamp": "2025-12-26T22:28:04.501891+00:00",
        "meta_object_name": "KUIPER-00181",
        "meta_object_id": "2025-301E",
        "meta_epoch": "2025-12-26T18:31:05.609280",
        "meta_mean_motion": 15.34464358,
        "meta_eccentricity": 0.0010017,
        "meta_inclination": 51.8644,
        "meta_ra_of_asc_node": 57.5486,
        "meta_arg_of_pericenter": 145.4576,
        "meta_mean_anomaly": 214.7062,
        "meta_ephemeris_type": 0,
        "meta_classification_type": "U",
        "meta_norad_cat_id": 67137,
        "meta_element_set_no": 999,
        "meta_rev_at_epoch": 268,
        "meta_bstar": 0.00070631,
        "meta_mean_motion_dot": 0.00023665,
        "meta_mean_motion_ddot": 0,
        "tle_line1": "1 67137U 25301E   25360.77159270  .00023665  00000+0  70631-3 0  9990",
        "tle_line2": "2 67137  51.8644  57.5486 0010017 145.4576 214.7062 15.34464358  2681"
      },
      "geometry": {
        "type": "Point",
        "coordinates": [
          -117.01205038103626,
          -7.866884816142587
        ]
      }
    }
  ]
}